0 ENVISAT
1 27386U 02009A   17294.82447329 -.00000011  00000-0  10029-4 0  9998
2 27386  98.2180 334.7235 0001282  87.8145 272.3177 14.37905842819278
0 ENVISAT
1 27386U 02009A   17295.17240348  .00000003  00000-0  14705-4 0  9994
2 27386  98.2180 335.0564 0001268  87.3331 272.8009 14.37906012819328
0 ENVISAT
1 27386U 02009A   17295.45074731  .00000009  00000-0  16589-4 0  9994
2 27386  98.2181 335.3227 0001277  86.8178 273.3161 14.37906112819361
0 ENVISAT
1 27386U 02009A   17295.79867714  .00000004  00000-0  14943-4 0  9999
2 27386  98.2180 335.6554 0001267  87.2003 272.9320 14.37906067819414
0 ENVISAT
1 27386U 02009A   17296.14660728  .00000006  00000-0  15837-4 0  9990
2 27386  98.2177 335.9883 0001248  87.8438 272.2905 14.37906177819464
0 ENVISAT
1 27386U 02009A   17296.42495099  .00000017  00000-0  19283-4 0  9999
2 27386  98.2177 336.2545 0001250  86.6444 273.4891 14.37906302819502
0 ENVISAT
1 27386U 02009A   17296.84246678  .00000009  00000-0  16622-4 0  9997
2 27386  98.2176 336.6536 0001267  87.4785 272.6540 14.37906265819566
0 ENVISAT
1 27386U 02009A   17297.19039691  .00000013  00000-0  17841-4 0  9990
2 27386  98.2175 336.9865 0001252  87.2830 272.8510 14.37906356819612
0 ENVISAT
1 27386U 02009A   17297.46874059  .00000027  00000-0  22693-4 0  9991
2 27386  98.2175 337.2527 0001247  85.9067 274.2267 14.37906529819653
0 ENVISAT
1 27386U 02009A   17297.81667038  .00000011  00000-0  17178-4 0  9992
2 27386  98.2174 337.5855 0001256  86.9125 273.2189 14.37906375819702
0 ENVISAT
1 27386U 02009A   17298.16460062  .00000013  00000-0  17907-4 0  9991
2 27386  98.2172 337.9181 0001252  86.3957 273.7380 14.37906460819757
0 ENVISAT
1 27386U 02009A   17298.51253039  .00000026  00000-0  22294-4 0  9993
2 27386  98.2172 338.2510 0001250  85.4111 274.7228 14.37906634819808
0 ENVISAT
1 27386U 02009A   17298.79087411  .00000010  00000-0  17111-4 0  9997
2 27386  98.2170 338.5172 0001261  87.2147 272.9171 14.37906489819843
0 ENVISAT
1 27386U 02009A   17299.13880423  .00000012  00000-0  17815-4 0  9993
2 27386  98.2169 338.8500 0001250  87.4967 272.6375 14.37906594819894
0 ENVISAT
1 27386U 02009A   17299.41714788 +.00000023 +00000-0 +21392-4 0  9991
2 27386 098.2169 339.1161 0001265 085.5514 274.5818 14.37906721819934
0 ENVISAT
1 27386U 02009A   17299.62590579  .00000023  00000-0  21437-4 0  9994
2 27386  98.2168 339.3157 0001253  85.9384 274.1949 14.37906749819960
0 ENVISAT
1 27386U 02009A   17299.76507769  .00000012  00000-0  17752-4 0  9991
2 27386  98.2168 339.4488 0001244  86.1984 273.9335 14.37906626819989
0 ENVISAT
1 27386U 02009A   17300.11300792  .00000007  00000-0  16171-4 0  9998
2 27386  98.2168 339.7816 0001242  86.6905 273.4433 14.37906627820036
0 ENVISAT
1 27386U 02009A   17300.46093763  .00000013  00000-0  18103-4 0  9997
2 27386  98.2168 340.1143 0001258  85.9518 274.1817 14.37906722820089
0 ENVISAT
1 27386U 02009A   17300.80886741 -.00000002  00000-0  13012-4 0  9994
2 27386  98.2167 340.4470 0001245  85.9375 274.1935 14.37906550820137
0 ENVISAT
1 27386U 02009A   17301.15679748  .00000001  00000-0  14048-4 0  9998
2 27386  98.2166 340.7797 0001241  86.9939 273.1396 14.37906660820181
0 ENVISAT
1 27386U 02009A   17301.50472720  .00000005  00000-0  15451-4 0  9991
2 27386  98.2165 341.1125 0001230  85.9944 274.1388 14.37906742820232
0 ENVISAT
1 27386U 02009A   17301.85265700 -.00000006  00000-0  11599-4 0  9998
2 27386  98.2163 341.4451 0001252  86.5218 273.6102 14.37906634820283
0 ENVISAT
1 27386U 02009A   17302.13100110 -.00000012  00000-0  97571-5 0  9995
2 27386  98.2162 341.7115 0001230  87.8696 272.2640 14.37906635820320
0 ENVISAT
1 27386U 02009A   17302.47893085 -.00000002  00000-0  12900-4 0  9993
2 27386  98.2163 342.0442 0001229  86.4777 273.6557 14.37906745820370
0 ENVISAT
1 27386U 02009A   17302.82686057 -.00000020  00000-0  71911-5 0  9999
2 27386  98.2162 342.3769 0001256  88.8266 271.3052 14.37906577820427
0 ENVISAT
1 27386U 02009A   17303.17479071 -.00000011  00000-0  10145-4 0  9995
2 27386  98.2161 342.7096 0001250  88.0861 272.0477 14.37906688820477
0 ENVISAT
1 27386U 02009A   17303.52272039 -.00000011  00000-0  10087-4 0  9994
2 27386  98.2161 343.0424 0001260  88.2848 271.8485 14.37906719820521
0 ENVISAT
1 27386U 02009A   17303.80106428 -.00000030  00000-0  38949-5 0  9992
2 27386  98.2160 343.3084 0001271  88.8884 271.2437 14.37906537820566
0 ENVISAT
1 27386U 02009A   17304.14899434 -.00000011  00000-0  99551-5 0  9991
2 27386  98.2159 343.6411 0001261  87.5023 272.6322 14.37906757820619
0 ENVISAT
1 27386U 02009A   17304.42733788 -.00000009  00000-0  10801-4 0  9998
2 27386  98.2159 343.9073 0001252  87.3076 272.8257 14.37906813820658
0 ENVISAT
1 27386U 02009A   17304.84485362 -.00000016  00000-0  82428-5 0  9999
2 27386  98.2158 344.3065 0001284  88.7529 271.3798 14.37906748820714
0 ENVISAT
1 27386U 02009A   17305.19278364 -.00000006  00000-0  11645-4 0  9991
2 27386  98.2158 344.6393 0001267  88.1177 272.0169 14.37906885820762
0 ENVISAT
1 27386U 02009A   17305.47112719 -.00000001 +00000-0 +13281-4 0  9996
2 27386 098.2158 344.9055 0001264 087.5264 272.6070 14.37906953820805
0 ENVISAT
1 27386U 02009A   17305.81905699 -.00000015 +00000-0 +85874-5 0  9994
2 27386 098.2157 345.2382 0001289 088.8800 271.2524 14.37906814820858
0 ENVISAT
1 27386U 02009A   17306.16698700 -.00000011  00000-0  10169-4 0  9995
2 27386  98.2156 345.5707 0001289  88.6388 271.4954 14.37906904820905
0 ENVISAT
1 27386U 02009A   17306.30615881 -.00000001  00000-0  13214-4 0  9993
2 27386  98.2157 345.7038 0001295  87.3232 272.8108 14.37906998820927
0 ENVISAT
1 27386U 02009A   17306.51491662 +.00000002 +00000-0 +14223-4 0  9996
2 27386 098.2157 345.9036 0001293 087.0725 273.0615 14.37907047820954
0 ENVISAT
1 27386U 02009A   17306.58450250 -.00000001  00000-0  13484-4 0  9999
2 27386  98.2158 345.9702 0001304  88.3533 271.7806 14.37907034820963
0 ENVISAT
1 27386U 02009A   17306.79326035 -.00000009 +00000-0 +10626-4 0  9998
2 27386 098.2158 346.1698 0001308 088.9685 271.1644 14.37906940820990
0 ENVISAT
1 27386U 02009A   17307.14119029 -.00000006  00000-0  11829-4 0  9994
2 27386  98.2156 346.5026 0001297  89.2205 270.9142 14.37907036821040
0 ENVISAT
1 27386U 02009A   17307.41953386 +.00000006 +00000-0 +15768-4 0  9991
2 27386 098.2157 346.7687 0001300 087.3897 272.7443 14.37907172821086
0 ENVISAT
1 27386U 02009A   17307.83704936 -.00000002  00000-0  13157-4 0  9999
2 27386  98.2157 347.1679 0001326  89.0676 271.0652 14.37907117821144
0 ENVISAT
1 27386U 02009A   17308.11539341  .00000002  00000-0  14377-4 0  9991
2 27386  98.2156 347.4341 0001315  89.3050 270.8297 14.37907194821180
0 ENVISAT
1 27386U 02009A   17308.46332290  .00000012  00000-0  17785-4 0  9990
2 27386  98.2156 347.7668 0001312  88.2801 271.8539 14.37907324821235
0 ENVISAT
1 27386U 02009A   17308.81125262  .00000000  00000-0  13761-4 0  9995
2 27386  98.2155 348.0993 0001315  88.8247 271.3081 14.37907208821285
0 ENVISAT
1 27386U 02009A   17309.15918245  .00000004  00000-0  15025-4 0  9993
2 27386  98.2153 348.4319 0001310  88.6010 271.5334 14.37907321821335
0 ENVISAT
1 27386U 02009A   17309.50711201  .00000021  00000-0  20798-4 0  9997
2 27386  98.2154 348.7648 0001332  86.8672 273.2677 14.37907532821380
0 ENVISAT
1 27386U 02009A   17309.85504156  .00000009  00000-0  16666-4 0  9999
2 27386  98.2153 349.0973 0001342  88.0233 272.1099 14.37907419821438
0 ENVISAT
1 27386U 02009A   17310.13338548  .00000008  00000-0  16416-4 0  9994
2 27386  98.2151 349.3633 0001350  87.8980 272.2364 14.37907456821478
0 ENVISAT
1 27386U 02009A   17310.48131489  .00000020  00000-0  20382-4 0  9998
2 27386  98.2151 349.6961 0001340  87.5165 272.6181 14.37907638821525
0 ENVISAT
1 27386U 02009A   17310.82924444  .00000009  00000-0  16813-4 0  9998
2 27386  98.2150 350.0287 0001325  87.7064 272.4261 14.37907528821574
0 ENVISAT
1 27386U 02009A   17311.10758836  .00000011  00000-0  17204-4 0  9998
2 27386  98.2149 350.2949 0001326  88.1035 272.0306 14.37907582821614
0 ENVISAT
1 27386U 02009A   17311.45551797  .00000010  00000-0  17080-4 0  9994
2 27386  98.2149 350.6275 0001321  87.0765 273.0575 14.37907627821667
0 ENVISAT
1 27386U 02009A   17311.80344758  .00000010  00000-0  16920-4 0  9992
2 27386  98.2148 350.9601 0001329  86.4656 273.6674 14.37907617821713
0 ENVISAT
1 27386U 02009A   17312.15137666  .00000522  00000-0  18646-3 0  9993
2 27386  98.2130 351.2938 0001439 103.6032 256.5346 14.37909160821769
0 ENVISAT
1 27386U 02009A   17312.49930524  .00000408  00000-0  14873-3 0  9995
2 27386  98.2128 351.6260 0001353 100.8182 259.3150 14.37909275821815
0 ENVISAT
1 27386U 02009A   17312.77764930  .00000004  00000-0  14983-4 0  9997
2 27386  98.2128 351.8920 0001429 103.4312 256.7009 14.37907763821856
0 ENVISAT
1 27386U 02009A   17313.12557921  .00000153  00000-0  64403-4 0  9994
2 27386  98.2127 352.2255 0001399 102.3535 257.7826 14.37908550821901
0 ENVISAT
1 27386U 02009A   17313.33433655  .00000059  00000-0  33111-4 0  9991
2 27386  98.2128 352.4249 0001401 102.0502 258.0836 14.37908328821933
0 ENVISAT
1 27386U 02009A   17313.47350848 -.00000094 +00000-0 -17539-4 0  9995
2 27386 098.2127 352.5580 0001378 101.0666 259.0672 14.37907989821957
0 ENVISAT
1 27386U 02009A   17313.82143854 -.00000556  00000-0 -17055-3 0  9996
2 27386  98.2128 352.8907 0001359 100.0907 260.0397 14.37906064822006
0 ENVISAT
1 27386U 02009A   17314.09978252 -.00000231  00000-0 -63003-4 0  9999
2 27386  98.2128 353.1562 0001367 100.8671 259.2672 14.37907105822049
0 ENVISAT
1 27386U 02009A   17314.51729803 -.00000042  00000-0 -37450-6 0  9991
2 27386  98.2131 353.5556 0001436 101.2363 258.9007 14.37907851822103
0 ENVISAT
1 27386U 02009A   17315.14357095  .00000561  00000-0  19948-3 0  9994
2 27386  98.2131 354.1542 0001436  99.3535 260.7833 14.37909065822199
